STARLINK-1572           
1 46060U 20055AK  26068.39969157 -.00004303  00000+0 -13689-3 0  9990
2 46060  53.1561 115.4328 0001206  90.8400 269.2739 15.29351391308999
TEVEL2-6                
1 63215U 25052F   26068.64958975  .00021046  00000+0  70909-3 0  9996
2 63215  97.4016 325.0381 0004769  95.6604 264.5181 15.30760889 54861
